[{"OBJECT_NAME":"STARLINK-36060","OBJECT_ID":"2025-298R","EPOCH":"2026-03-09T22:00:01.999584","MEAN_MOTION":14.98356266,"ECCENTRICITY":0.0002785,"INCLINATION":70.0013,"RA_OF_ASC_NODE":13.8822,"ARG_OF_PERICENTER":268.1608,"MEAN_ANOMALY":9.2301,"EPHEMERIS_TYPE":0,"CLASSIFICATION_TYPE":"U","NORAD_CAT_ID":67090,"ELEMENT_SET_NO":999,"REV_AT_EPOCH":590,"BSTAR":-0.0022074468,"MEAN_MOTION_DOT":-0.00026351,"MEAN_MOTION_DDOT":0},{"OBJECT_NAME":"CZ-6A DEB","OBJECT_ID":"2022-151UT","EPOCH":"2026-03-09T17:50:02.810976","MEAN_MOTION":14.9898329,"ECCENTRICITY":0.00453187,"INCLINATION":98.6222,"RA_OF_ASC_NODE":145.5138,"ARG_OF_PERICENTER":180.208,"MEAN_ANOMALY":179.9129,"EPHEMERIS_TYPE":0,"CLASSIFICATION_TYPE":"U","NORAD_CAT_ID":55003,"ELEMENT_SET_NO":999,"REV_AT_EPOCH":17561,"BSTAR":0.0047870048,"MEAN_MOTION_DOT":0.00059614,"MEAN_MOTION_DDOT":0}]
